{
  "type": "FeatureCollection",
  "features": [
    {
      "type": "Feature",
      "properties": {
        "norad_id": 41773,
        "name": "SKYSAT-C2",
        "group": "resource",
        "lat": 0.1579467530294075,
        "lon": -158.5788635096033,
        "alt_km": 458.74249064809464,
        "timestamp": "2025-12-23T07:45:09.054026+00:00",
        "meta_object_name": "SKYSAT-C2",
        "meta_object_id": "2016-058D",
        "meta_epoch": "2025-12-22T13:47:28.316256",
        "meta_mean_motion": 15.37479301,
        "meta_eccentricity": 0.00031137,
        "meta_inclination": 97.0346,
        "meta_ra_of_asc_node": 20.6848,
        "meta_arg_of_pericenter": 5.7873,
        "meta_mean_anomaly": 354.3408,
        "meta_ephemeris_type": 0,
        "meta_classification_type": "U",
        "meta_norad_cat_id": 41773,
        "meta_element_set_no": 999,
        "meta_rev_at_epoch": 51787,
        "meta_bstar": 0.00032762855,
        "meta_mean_motion_dot": 0.00011972,
        "meta_mean_motion_ddot": 0,
        "tle_line1": "1 41773U 16058D   25356.57463329  .00011972  00000+0  32763-3 0  9995",
        "tle_line2": "2 41773  97.0346  20.6848 0003113   5.7873 354.3408 15.37479301517874"
      },
      "geometry": {
        "type": "Point",
        "coordinates": [
          -158.5788635096033,
          0.1579467530294075
        ]
      }
    },
    {
      "type": "Feature",
      "properties": {
        "norad_id": 41774,
        "name": "SKYSAT-C3",
        "group": "resource",
        "lat": -76.30063764279099,
        "lon": 60.502299661084976,
        "alt_km": 440.8546687166736,
        "timestamp": "2025-12-23T07:45:09.054036+00:00",
        "meta_object_name": "SKYSAT-C3",
        "meta_object_id": "2016-058E",
        "meta_epoch": "2025-12-22T14:59:20.624064",
        "meta_mean_motion": 15.4473117,
        "meta_eccentricity": 0.00020595,
        "meta_inclination": 96.9284,
        "meta_ra_of_asc_node": 29.9115,
        "meta_arg_of_pericenter": 107.1128,
        "meta_mean_anomaly": 253.0348,
        "meta_ephemeris_type": 0,
        "meta_classification_type": "U",
        "meta_norad_cat_id": 41774,
        "meta_element_set_no": 999,
        "meta_rev_at_epoch": 51878,
        "meta_bstar": 0.00041402054,
        "meta_mean_motion_dot": 0.00019283,
        "meta_mean_motion_ddot": 0,
        "tle_line1": "1 41774U 16058E   25356.62454426  .00019283  00000+0  41402-3 0  9993",
        "tle_line2": "2 41774  96.9284  29.9115 0002059 107.1128 253.0348 15.44731170518783"
      },
      "geometry": {
        "type": "Point",
        "coordinates": [
          60.502299661084976,
          -76.30063764279099
        ]
      }
    },
    {
      "type": "Feature",
      "properties": {
        "norad_id": 41785,
        "name": "ALSAT 1B",
        "group": "resource",
        "lat": -79.5080840451132,
        "lon": 141.06973082026985,
        "alt_km": 669.2530418482429,
        "timestamp": "2025-12-23T07:45:09.054046+00:00",
        "meta_object_name": "ALSAT 1B",
        "meta_object_id": "2016-059C",
        "meta_epoch": "2025-12-23T00:02:12.267168",
        "meta_mean_motion": 14.72085338,
        "meta_eccentricity": 0.00107791,
        "meta_inclination": 97.7804,
        "meta_ra_of_asc_node": 8.3479,
        "meta_arg_of_pericenter": 74.7455,
        "meta_mean_anomaly": 285.4944,
        "meta_ephemeris_type": 0,
        "meta_classification_type": "U",
        "meta_norad_cat_id": 41785,
        "meta_element_set_no": 999,
        "meta_rev_at_epoch": 49465,
        "meta_bstar": 8.0183944e-05,
        "meta_mean_motion_dot": 4.57e-06,
        "meta_mean_motion_ddot": 0,
        "tle_line1": "1 41785U 16059C   25357.00153087  .00000457  00000+0  80184-4 0  9992",
        "tle_line2": "2 41785  97.7804   8.3479 0010779  74.7455 285.4944 14.72085338494654"
      },
      "geometry": {
        "type": "Point",
        "coordinates": [
          141.06973082026985,
          -79.5080840451132
        ]
      }
    },
    {
      "type": "Feature",
      "properties": {
        "norad_id": 41787,
        "name": "PATHFINDER 1",
        "group": "resource",
        "lat": 18.568648245267514,
        "lon": -177.750529665535,
        "alt_km": 677.7649719162064,
        "timestamp": "2025-12-23T07:45:09.054056+00:00",
        "meta_object_name": "PATHFINDER 1",
        "meta_object_id": "2016-059E",
        "meta_epoch": "2025-12-22T22:50:24.395136",
        "meta_mean_motion": 14.6733842,
        "meta_eccentricity": 0.00297194,
        "meta_inclination": 97.8137,
        "meta_ra_of_asc_node": 359.2514,
        "meta_arg_of_pericenter": 50.0679,
        "meta_mean_anomaly": 310.3131,
        "meta_ephemeris_type": 0,
        "meta_classification_type": "U",
        "meta_norad_cat_id": 41787,
        "meta_element_set_no": 999,
        "meta_rev_at_epoch": 49386,
        "meta_bstar": 0.00014467251,
        "meta_mean_motion_dot": 7.76e-06,
        "meta_mean_motion_ddot": 0,
        "tle_line1": "1 41787U 16059E   25356.95167124  .00000776  00000+0  14467-3 0  9998",
        "tle_line2": "2 41787  97.8137 359.2514 0029719  50.0679 310.3131 14.67338420493868"
      },
      "geometry": {
        "type": "Point",
        "coordinates": [
          -177.750529665535,
          18.568648245267514
        ]
      }
    },
    {
      "type": "Feature",
      "properties": {
        "norad_id": 41790,
        "name": "SCATSAT 1",
        "group": "resource",
        "lat": -55.559177662565965,
        "lon": -137.9297661518122,
        "alt_km": 670.6373295858111,
        "timestamp": "2025-12-23T07:45:09.054066+00:00",
        "meta_object_name": "SCATSAT 1",
        "meta_object_id": "2016-059H",
        "meta_epoch": "2025-12-22T14:27:15.854112",
        "meta_mean_motion": 14.78966851,
        "meta_eccentricity": 0.00564639,
        "meta_inclination": 98.1449,
        "meta_ra_of_asc_node": 53.3952,
        "meta_arg_of_pericenter": 96.9229,
        "meta_mean_anomaly": 263.8409,
        "meta_ephemeris_type": 0,
        "meta_classification_type": "U",
        "meta_norad_cat_id": 41790,
        "meta_element_set_no": 999,
        "meta_rev_at_epoch": 7548,
        "meta_bstar": 0.00017791286,
        "meta_mean_motion_dot": 1.292e-05,
        "meta_mean_motion_ddot": 0,
        "tle_line1": "1 41790U 16059H   25356.60226683  .00001292  00000+0  17791-3 0  9997",
        "tle_line2": "2 41790  98.1449  53.3952 0056463  96.9229 263.8409 14.78966851 75487"
      },
      "geometry": {
        "type": "Point",
        "coordinates": [
          -137.9297661518122,
          -55.559177662565965
        ]
      }
    },
    {
      "type": "Feature",
      "properties": {
        "norad_id": 41875,
        "name": "GOKTURK 1A",
        "group": "resource",
        "lat": 64.10928824552461,
        "lon": -127.61043706591181,
        "alt_km": 677.0386491317213,
        "timestamp": "2025-12-23T07:45:09.054089+00:00",
        "meta_object_name": "GOKTURK 1A",
        "meta_object_id": "2016-073A",
        "meta_epoch": "2025-12-22T23:14:47.601600",
        "meta_mean_motion": 14.62791368,
        "meta_eccentricity": 0.00012846,
        "meta_inclination": 98.1432,
        "meta_ra_of_asc_node": 249.1975,
        "meta_arg_of_pericenter": 81.6743,
        "meta_mean_anomaly": 278.4604,
        "meta_ephemeris_type": 0,
        "meta_classification_type": "U",
        "meta_norad_cat_id": 41875,
        "meta_element_set_no": 999,
        "meta_rev_at_epoch": 48306,
        "meta_bstar": 0.00016145502,
        "meta_mean_motion_dot": 7.77e-06,
        "meta_mean_motion_ddot": 0,
        "tle_line1": "1 41875U 16073A   25356.96860650  .00000777  00000+0  16146-3 0  9994",
        "tle_line2": "2 41875  98.1432 249.1975 0001284  81.6743 278.4604 14.62791368483064"
      },
      "geometry": {
        "type": "Point",
        "coordinates": [
          -127.61043706591181,
          64.10928824552461
        ]
      }
    },
    {
      "type": "Feature",
      "properties": {
        "norad_id": 41877,
        "name": "RESOURCESAT-2A",
        "group": "resource",
        "lat": -12.094825020543732,
        "lon": 69.01377187223659,
        "alt_km": 825.140030415133,
        "timestamp": "2025-12-23T07:45:09.054101+00:00",
        "meta_object_name": "RESOURCESAT-2A",
        "meta_object_id": "2016-074A",
        "meta_epoch": "2025-12-22T23:21:50.522688",
        "meta_mean_motion": 14.216034,
        "meta_eccentricity": 0.00015364,
        "meta_inclination": 98.7746,
        "meta_ra_of_asc_node": 66.7697,
        "meta_arg_of_pericenter": 208.0841,
        "meta_mean_anomaly": 152.0253,
        "meta_ephemeris_type": 0,
        "meta_classification_type": "U",
        "meta_norad_cat_id": 41877,
        "meta_element_set_no": 999,
        "meta_rev_at_epoch": 46926,
        "meta_bstar": 7.7951378e-05,
        "meta_mean_motion_dot": 1.27e-06,
        "meta_mean_motion_ddot": 0,
        "tle_line1": "1 41877U 16074A   25356.97350142  .00000127  00000+0  77951-4 0  9999",
        "tle_line2": "2 41877  98.7746  66.7697 0001536 208.0841 152.0253 14.21603400469265"
      },
      "geometry": {
        "type": "Point",
        "coordinates": [
          69.01377187223659,
          -12.094825020543732
        ]
      }
    }
  ]
}